{
    "links": {
        "self": "http://www.neowsapp.com/rest/v1/neo/54053748?api_key=iIulBulltgU6a56xZRHN4H3l9WmuAYTsLGpBGhQ2"
    },
    "id": "54053748",
    "neo_reference_id": "54053748",
    "name": "(2020 RX)",
    "designation": "2020 RX",
    "nasa_jpl_url": "http://ssd.jpl.nasa.gov/sbdb.cgi?sstr=54053748",
    "absolute_magnitude_h": 24.219,
    "estimated_diameter": {
        "kilometers": {
            "estimated_diameter_min": 0.0380850892,
            "estimated_diameter_max": 0.0851608483
        },
        "meters": {
            "estimated_diameter_min": 38.0850891566,
            "estimated_diameter_max": 85.1608482832
        },
        "miles": {
            "estimated_diameter_min": 0.0236649699,
            "estimated_diameter_max": 0.0529164815
        },
        "feet": {
            "estimated_diameter_min": 124.9510839084,
            "estimated_diameter_max": 279.3991174815
        }
    },
    "is_potentially_hazardous_asteroid": false,
    "close_approach_data": [
        {
            "close_approach_date": "2020-08-28",
            "close_approach_date_full": "2020-Aug-28 10:28",
            "epoch_date_close_approach": 1598610480000,
            "relative_velocity": {
                "kilometers_per_second": "19.6481927938",
                "kilometers_per_hour": "70733.4940576138",
                "miles_per_hour": "43951.0424604101"
            },
            "miss_distance": {
                "astronomical": "0.0456370179",
                "lunar": "17.7527999631",
                "kilometers": "6827200.670991873",
                "miles": "4242225.7823309274"
            },
            "orbiting_body": "Earth"
        }
    ],
    "orbital_data": {
        "orbit_id": "4",
        "orbit_determination_date": "2020-09-13 07:24:46",
        "first_observation_date": "2020-09-06",
        "last_observation_date": "2020-09-12",
        "data_arc_in_days": 6,
        "observations_used": 35,
        "orbit_uncertainty": "9",
        "minimum_orbit_intersection": ".0251902",
        "jupiter_tisserand_invariant": "3.994",
        "epoch_osculation": "2459101.5",
        "eccentricity": ".6169505594486877",
        "semi_major_axis": "1.676680758761736",
        "inclination": "4.288079920004628",
        "ascending_node_longitude": "313.7950968726486",
        "orbital_period": "793.001479549231",
        "perihelion_distance": ".6422516266268328",
        "perihelion_argument": "292.2448593751539",
        "aphelion_distance": "2.711109890896639",
        "perihelion_time": "2459039.853437666385",
        "mean_anomaly": "27.9857768395546",
        "mean_motion": ".4539714102483595",
        "equinox": "J2000",
        "orbit_class": {
            "orbit_class_type": "APO",
            "orbit_class_description": "Near-Earth asteroid orbits which cross the Earth’s orbit similar to that of 1862 Apollo",
            "orbit_class_range": "a (semi-major axis) > 1.0 AU; q (perihelion) < 1.017 AU"
        }
    },
    "is_sentry_object": false
}